OBJECT_NAME,OBJECT_ID,EPOCH,MEAN_MOTION,ECCENTRICITY,INCLINATION,RA_OF_ASC_NODE,ARG_OF_PERICENTER,MEAN_ANOMALY,EPHEMERIS_TYPE,CLASSIFICATION_TYPE,NORAD_CAT_ID,ELEMENT_SET_NO,REV_AT_EPOCH,BSTAR,MEAN_MOTION_DOT,MEAN_MOTION_DDOT
SWARM A,2013-067B,2026-03-01T10:50:25.881216,15.48530842,.0003025,87.3297,96.2111,93.4800,266.6806,0,U,39452,999,68956,.23007E-3,.12283E-3,0
SWARM C,2013-067C,2026-03-01T10:50:16.339200,15.48529812,.0003034,87.3294,94.7929,93.3651,266.7956,0,U,39453,999,68952,.23146E-3,.12356E-3,0
BRITE-CA1 (TORONTO),2014-033L,2026-03-01T08:07:25.006368,14.72434068,.0077656,97.9553,191.3797,262.0328,97.2062,0,U,40020,999,62634,.23238E-3,.149E-4,0
OCO 2,2014-035A,2026-03-01T11:33:00.684288,14.57082112,.0001135,98.2188,3.4425,90.3817,269.7511,0,U,40059,999,62036,.15615E-3,.658E-5,0
BRITE-PL2 (HEWELIUSZ),2014-049B,2026-03-01T07:14:53.773728,14.94126309,.0015358,97.8976,171.5846,107.1507,253.1396,0,U,40119,999,62533,.27485E-3,.2887E-4,0
MMS 1,2015-011A,2026-03-01T14:00:01.999008,0.28329377,.8416092,70.7227,350.2441,165.1990,122.8739,0,U,40482,999,132,0,-.2243E-4,0
MMS 2,2015-011B,2026-03-01T14:00:01.999008,0.28329336,.8416881,70.7268,350.2448,165.2061,122.8536,0,U,40483,999,132,0,-.2244E-4,0
MMS 3,2015-011C,2026-03-01T14:00:01.999008,0.28329304,.8416168,70.7292,350.2494,165.2002,122.8627,0,U,40484,999,132,0,-.2243E-4,0
MMS 4,2015-011D,2026-03-01T14:00:01.999008,0.28329348,.841561,70.7235,350.2460,165.2066,122.8515,0,U,40485,999,132,0,-.2243E-4,0
ASTROSAT,2015-052A,2026-03-01T09:05:46.970304,14.82269769,.0008582,5.9961,211.2479,294.0802,65.8428,0,U,40930,999,56380,.19198E-3,.2241E-4,0
DAMPE,2015-078A,2026-03-01T13:29:50.520192,15.30463312,.0013852,97.4579,65.5146,96.2859,263.9960,0,U,41173,999,56808,.57716E-4,.1626E-4,0
PISAT,2016-059B,2026-03-01T12:19:58.537344,14.68749459,.0028882,97.8187,65.6105,186.7021,173.3803,0,U,41784,999,50393,.23189E-3,.1313E-4,0
HXMT (HUIYAN),2017-034A,2026-03-01T11:36:27.425664,15.17337368,.0031968,43.0148,62.2903,185.2977,174.7536,0,U,42758,999,48129,.31701E-3,.6287E-4,0
FLYING LAPTOP,2017-042G,2026-03-01T12:12:44.475840,15.00447709,.0018226,97.4242,220.5483,122.3025,237.9968,0,U,42831,999,47030,.17634E-3,.2169E-4,0
ZHANGHENG 1-01 (CSES-1),2018-015C,2026-03-01T11:55:49.916928,15.20820696,.0014752,97.6732,224.0763,274.9286,85.0265,0,U,43194,999,44827,.49012E-3,.10776E-3,0
SALSAT,2020-068K,2026-03-01T11:42:16.163712,15.27983521,.0008976,97.8843,57.1429,330.8256,29.2479,0,U,46495,999,29890,.40526E-3,.11E-3,0
IXPE,2021-121A,2026-03-01T12:00:02.998944,15.09075705,.0007731,0.2317,50.9441,248.8835,321.5024,0,U,49954,999,591,.75173E-3,.13204E-3,0